{
    "links": {
        "self": "http://www.neowsapp.com/rest/v1/neo/3321569?api_key=iIulBulltgU6a56xZRHN4H3l9WmuAYTsLGpBGhQ2"
    },
    "id": "3321569",
    "neo_reference_id": "3321569",
    "name": "(2006 BX147)",
    "designation": "2006 BX147",
    "nasa_jpl_url": "http://ssd.jpl.nasa.gov/sbdb.cgi?sstr=3321569",
    "absolute_magnitude_h": 21.487,
    "estimated_diameter": {
        "kilometers": {
            "estimated_diameter_min": 0.1340154832,
            "estimated_diameter_max": 0.2996677305
        },
        "meters": {
            "estimated_diameter_min": 134.0154832105,
            "estimated_diameter_max": 299.6677304961
        },
        "miles": {
            "estimated_diameter_min": 0.0832733348,
            "estimated_diameter_max": 0.1862048374
        },
        "feet": {
            "estimated_diameter_min": 439.6833579362,
            "estimated_diameter_max": 983.1618769208
        }
    },
    "is_potentially_hazardous_asteroid": true,
    "close_approach_data": [
        {
            "close_approach_date": "2002-04-02",
            "close_approach_date_full": "2002-Apr-02 12:57",
            "epoch_date_close_approach": 1017752220000,
            "relative_velocity": {
                "kilometers_per_second": "17.1559957807",
                "kilometers_per_hour": "61761.5848105078",
                "miles_per_hour": "38376.2469618402"
            },
            "miss_distance": {
                "astronomical": "0.1928672288",
                "lunar": "75.0253520032",
                "kilometers": "28852526.621282656",
                "miles": "17928128.7040904128"
            },
            "orbiting_body": "Earth"
        },
        {
            "close_approach_date": "2003-09-29",
            "close_approach_date_full": "2003-Sep-29 00:51",
            "epoch_date_close_approach": 1064796660000,
            "relative_velocity": {
                "kilometers_per_second": "28.4629321301",
                "kilometers_per_hour": "102466.5556685227",
                "miles_per_hour": "63668.7328819218"
            },
            "miss_distance": {
                "astronomical": "0.1202820266",
                "lunar": "46.7897083474",
                "kilometers": "17993934.978643342",
                "miles": "11180912.7299164396"
            },
            "orbiting_body": "Venus"
        },
        {
            "close_approach_date": "2006-01-30",
            "close_approach_date_full": "2006-Jan-30 07:35",
            "epoch_date_close_approach": 1138606500000,
            "relative_velocity": {
                "kilometers_per_second": "18.6730823955",
                "kilometers_per_hour": "67223.0966236412",
                "miles_per_hour": "41769.8180103953"
            },
            "miss_distance": {
                "astronomical": "0.0662978266",
                "lunar": "25.7898545474",
                "kilometers": "9918013.644989342",
                "miles": "6162767.9076512396"
            },
            "orbiting_body": "Earth"
        }
    ],
    "orbital_data": {
        "orbit_id": "9",
        "orbit_determination_date": "2017-04-06 09:09:12",
        "first_observation_date": "2006-01-27",
        "last_observation_date": "2006-02-06",
        "data_arc_in_days": 10,
        "observations_used": 12,
        "orbit_uncertainty": "9",
        "minimum_orbit_intersection": ".0381054",
        "jupiter_tisserand_invariant": "7.170",
        "epoch_osculation": "2453766.5",
        "eccentricity": ".678016710861325",
        "semi_major_axis": ".7871952710953176",
        "inclination": "11.57714745225008",
        "ascending_node_longitude": "141.0364831774175",
        "orbital_period": "255.1068625704285",
        "perihelion_distance": ".2534637225816813",
        "perihelion_argument": "201.6941579241938",
        "aphelion_distance": "1.320926819608954",
        "perihelion_time": "2453707.819976089326",
        "mean_anomaly": "82.80768457183554",
        "mean_motion": "1.41117332702335",
        "equinox": "J2000",
        "orbit_class": {
            "orbit_class_type": "ATE",
            "orbit_class_description": "Near-Earth asteroid orbits similar to that of 2062 Aten",
            "orbit_class_range": "a (semi-major axis) < 1.0 AU; q (perihelion) > 0.983 AU"
        }
    },
    "is_sentry_object": false
}